[{"OBJECT_NAME":"ONEWEB-0711","OBJECT_ID":"2023-004AL","EPOCH":"2026-02-19T23:36:30.020256","MEAN_MOTION":13.11413745,"ECCENTRICITY":0.0002325,"INCLINATION":87.8838,"RA_OF_ASC_NODE":44.3753,"ARG_OF_PERICENTER":69.1007,"MEAN_ANOMALY":291.037,"EPHEMERIS_TYPE":0,"CLASSIFICATION_TYPE":"U","NORAD_CAT_ID":55174,"ELEMENT_SET_NO":999,"REV_AT_EPOCH":15047,"BSTAR":0.00015144,"MEAN_MOTION_DOT":6.6e-7,"MEAN_MOTION_DDOT":0},{"OBJECT_NAME":"ONEWEB-0713","OBJECT_ID":"2023-004AM","EPOCH":"2026-02-20T05:32:56.380704","MEAN_MOTION":13.11414959,"ECCENTRICITY":0.00020863,"INCLINATION":87.8838,"RA_OF_ASC_NODE":44.3266,"ARG_OF_PERICENTER":77.349,"MEAN_ANOMALY":282.7871,"EPHEMERIS_TYPE":0,"CLASSIFICATION_TYPE":"U","NORAD_CAT_ID":55175,"ELEMENT_SET_NO":999,"REV_AT_EPOCH":15049,"BSTAR":-0.0015487001,"MEAN_MOTION_DOT":-5.36e-6,"MEAN_MOTION_DDOT":0},{"OBJECT_NAME":"ONEWEB-0715","OBJECT_ID":"2023-004AN","EPOCH":"2026-02-19T23:56:01.407264","MEAN_MOTION":13.11416226,"ECCENTRICITY":0.00025454,"INCLINATION":87.8836,"RA_OF_ASC_NODE":44.3733,"ARG_OF_PERICENTER":96.2105,"MEAN_ANOMALY":263.9313,"EPHEMERIS_TYPE":0,"CLASSIFICATION_TYPE":"U","NORAD_CAT_ID":55176,"ELEMENT_SET_NO":999,"REV_AT_EPOCH":15050,"BSTAR":-0.0012233878,"MEAN_MOTION_DOT":-4.21e-6,"MEAN_MOTION_DDOT":0},{"OBJECT_NAME":"ONEWEB-0716","OBJECT_ID":"2023-004AP","EPOCH":"2026-02-19T21:00:56.248128","MEAN_MOTION":13.1764826,"ECCENTRICITY":0.0001678,"INCLINATION":87.9117,"RA_OF_ASC_NODE":29.1678,"ARG_OF_PERICENTER":87.0237,"MEAN_ANOMALY":273.1086,"EPHEMERIS_TYPE":0,"CLASSIFICATION_TYPE":"U","NORAD_CAT_ID":55177,"ELEMENT_SET_NO":999,"REV_AT_EPOCH":15213,"BSTAR":8.2208e-5,"MEAN_MOTION_DOT":4.5e-7,"MEAN_MOTION_DDOT":0},{"OBJECT_NAME":"ONEWEB-0717","OBJECT_ID":"2023-004AQ","EPOCH":"2026-02-19T20:36:37.922400","MEAN_MOTION":13.17648039,"ECCENTRICITY":0.0002432,"INCLINATION":87.9131,"RA_OF_ASC_NODE":29.1486,"ARG_OF_PERICENTER":70.6511,"MEAN_ANOMALY":289.4883,"EPHEMERIS_TYPE":0,"CLASSIFICATION_TYPE":"U","NORAD_CAT_ID":55178,"ELEMENT_SET_NO":999,"REV_AT_EPOCH":15218,"BSTAR":1.4012e-5,"MEAN_MOTION_DOT":1.8e-7,"MEAN_MOTION_DDOT":0},{"OBJECT_NAME":"ONEWEB-0719","OBJECT_ID":"2023-004AR","EPOCH":"2026-02-19T20:51:13.745376","MEAN_MOTION":13.17650655,"ECCENTRICITY":0.000171,"INCLINATION":87.9129,"RA_OF_ASC_NODE":29.1283,"ARG_OF_PERICENTER":79.8166,"MEAN_ANOMALY":280.3158,"EPHEMERIS_TYPE":0,"CLASSIFICATION_TYPE":"U","NORAD_CAT_ID":55179,"ELEMENT_SET_NO":999,"REV_AT_EPOCH":15213,"BSTAR":0.00010657,"MEAN_MOTION_DOT":5.4e-7,"MEAN_MOTION_DDOT":0},{"OBJECT_NAME":"ONEWEB-0530","OBJECT_ID":"2023-029A","EPOCH":"2026-02-20T04:44:42.938016","MEAN_MOTION":13.20771107,"ECCENTRICITY":0.00018008,"INCLINATION":87.9191,"RA_OF_ASC_NODE":297.8341,"ARG_OF_PERICENTER":64.1002,"MEAN_ANOMALY":296.0317,"EPHEMERIS_TYPE":0,"CLASSIFICATION_TYPE":"U","NORAD_CAT_ID":55796,"ELEMENT_SET_NO":999,"REV_AT_EPOCH":14570,"BSTAR":-1.0630095e-5,"MEAN_MOTION_DOT":9.0e-8,"MEAN_MOTION_DDOT":0},{"OBJECT_NAME":"ONEWEB-0534","OBJECT_ID":"2023-029B","EPOCH":"2026-02-20T04:26:32.153568","MEAN_MOTION":13.20771114,"ECCENTRICITY":0.00014784,"INCLINATION":87.9192,"RA_OF_ASC_NODE":297.8355,"ARG_OF_PERICENTER":83.1118,"MEAN_ANOMALY":277.0183,"EPHEMERIS_TYPE":0,"CLASSIFICATION_TYPE":"U","NORAD_CAT_ID":55797,"ELEMENT_SET_NO":999,"REV_AT_EPOCH":14570,"BSTAR":0.00032742725,"MEAN_MOTION_DOT":1.46e-6,"MEAN_MOTION_DDOT":0},{"OBJECT_NAME":"ONEWEB-0556","OBJECT_ID":"2023-029C","EPOCH":"2026-02-20T04:35:37.328064","MEAN_MOTION":13.20770403,"ECCENTRICITY":8.468e-5,"INCLINATION":87.9191,"RA_OF_ASC_NODE":297.8367,"ARG_OF_PERICENTER":54.7647,"MEAN_ANOMALY":305.3565,"EPHEMERIS_TYPE":0,"CLASSIFICATION_TYPE":"U","NORAD_CAT_ID":55798,"ELEMENT_SET_NO":999,"REV_AT_EPOCH":14570,"BSTAR":6.389537e-6,"MEAN_MOTION_DOT":1.6e-7,"MEAN_MOTION_DDOT":0},{"OBJECT_NAME":"ONEWEB-0562","OBJECT_ID":"2023-029D","EPOCH":"2026-02-20T04:17:26.777760","MEAN_MOTION":13.20771269,"ECCENTRICITY":0.00016906,"INCLINATION":87.9192,"RA_OF_ASC_NODE":297.8191,"ARG_OF_PERICENTER":49.3037,"MEAN_ANOMALY":310.8243,"EPHEMERIS_TYPE":0,"CLASSIFICATION_TYPE":"U","NORAD_CAT_ID":55799,"ELEMENT_SET_NO":999,"REV_AT_EPOCH":14570,"BSTAR":0.00029105432,"MEAN_MOTION_DOT":1.31e-6,"MEAN_MOTION_DDOT":0},{"OBJECT_NAME":"ONEWEB-0563","OBJECT_ID":"2023-029E","EPOCH":"2026-02-20T04:08:21.209280","MEAN_MOTION":13.20771306,"ECCENTRICITY":0.00013847,"INCLINATION":87.9193,"RA_OF_ASC_NODE":297.851,"ARG_OF_PERICENTER":85.8333,"MEAN_ANOMALY":274.2959,"EPHEMERIS_TYPE":0,"CLASSIFICATION_TYPE":"U","NORAD_CAT_ID":55800,"ELEMENT_SET_NO":999,"REV_AT_EPOCH":14569,"BSTAR":0.00022890344,"MEAN_MOTION_DOT":1.06e-6,"MEAN_MOTION_DDOT":0},{"OBJECT_NAME":"ONEWEB-0564","OBJECT_ID":"2023-029F","EPOCH":"2026-02-20T03:59:16.023552","MEAN_MOTION":13.20771304,"ECCENTRICITY":0.0001705,"INCLINATION":87.9194,"RA_OF_ASC_NODE":297.8241,"ARG_OF_PERICENTER":66.0698,"MEAN_ANOMALY":294.0614,"EPHEMERIS_TYPE":0,"CLASSIFICATION_TYPE":"U","NORAD_CAT_ID":55801,"ELEMENT_SET_NO":999,"REV_AT_EPOCH":14570,"BSTAR":8.8559072e-5,"MEAN_MOTION_DOT":4.9e-7,"MEAN_MOTION_DDOT":0},{"OBJECT_NAME":"ONEWEB-0638","OBJECT_ID":"2023-029G","EPOCH":"2026-02-20T04:07:14.186208","MEAN_MOTION":13.14502245,"ECCENTRICITY":0.00013315,"INCLINATION":87.9004,"RA_OF_ASC_NODE":313.1015,"ARG_OF_PERICENTER":57.7855,"MEAN_ANOMALY":302.3403,"EPHEMERIS_TYPE":0,"CLASSIFICATION_TYPE":"U","NORAD_CAT_ID":55802,"ELEMENT_SET_NO":999,"REV_AT_EPOCH":14402,"BSTAR":0.0018999996,"MEAN_MOTION_DOT":7.17e-6,"MEAN_MOTION_DDOT":0},{"OBJECT_NAME":"ONEWEB-0639","OBJECT_ID":"2023-029H","EPOCH":"2026-02-20T04:45:27.288000","MEAN_MOTION":13.19725626,"ECCENTRICITY":0.00015663,"INCLINATION":87.9246,"RA_OF_ASC_NODE":328.2752,"ARG_OF_PERICENTER":116.298,"MEAN_ANOMALY":243.8313,"EPHEMERIS_TYPE":0,"CLASSIFICATION_TYPE":"U","NORAD_CAT_ID":55803,"ELEMENT_SET_NO":999,"REV_AT_EPOCH":14347,"BSTAR":0.00031733868,"MEAN_MOTION_DOT":1.4e-6,"MEAN_MOTION_DDOT":0},{"OBJECT_NAME":"ONEWEB-0640","OBJECT_ID":"2023-029J","EPOCH":"2026-02-20T04:20:54.142080","MEAN_MOTION":13.14505102,"ECCENTRICITY":8.794e-5,"INCLINATION":87.901,"RA_OF_ASC_NODE":313.0893,"ARG_OF_PERICENTER":73.0314,"MEAN_ANOMALY":287.0912,"EPHEMERIS_TYPE":0,"CLASSIFICATION_TYPE":"U","NORAD_CAT_ID":55804,"ELEMENT_SET_NO":999,"REV_AT_EPOCH":14404,"BSTAR":0.00073409717,"MEAN_MOTION_DOT":2.85e-6,"MEAN_MOTION_DDOT":0},{"OBJECT_NAME":"ONEWEB-0641","OBJECT_ID":"2023-029K","EPOCH":"2026-02-20T04:38:37.490208","MEAN_MOTION":13.1972479,"ECCENTRICITY":0.00017126,"INCLINATION":87.9253,"RA_OF_ASC_NODE":328.2616,"ARG_OF_PERICENTER":83.6071,"MEAN_ANOMALY":276.5257,"EPHEMERIS_TYPE":0,"CLASSIFICATION_TYPE":"U","NORAD_CAT_ID":55805,"ELEMENT_SET_NO":999,"REV_AT_EPOCH":14348,"BSTAR":0.00031753358,"MEAN_MOTION_DOT":1.4e-6,"MEAN_MOTION_DDOT":0},{"OBJECT_NAME":"ONEWEB-0642","OBJECT_ID":"2023-029L","EPOCH":"2026-02-20T04:31:48.444960","MEAN_MOTION":13.19724772,"ECCENTRICITY":0.00017969,"INCLINATION":87.9245,"RA_OF_ASC_NODE":328.2786,"ARG_OF_PERICENTER":106.3763,"MEAN_ANOMALY":253.7568,"EPHEMERIS_TYPE":0,"CLASSIFICATION_TYPE":"U","NORAD_CAT_ID":55806,"ELEMENT_SET_NO":999,"REV_AT_EPOCH":14347,"BSTAR":0.00026413229,"MEAN_MOTION_DOT":1.19e-6,"MEAN_MOTION_DDOT":0}]
