ONEWEB-0711             
1 55174U 23004AL  26050.98368079  .00000066  00000+0  15144-3 0  9993
2 55174  87.8838  44.3753 0002325  69.1007 291.0370 13.11413745150476
ONEWEB-0713             
1 55175U 23004AM  26051.23120811 -.00000536  00000+0 -15487-2 0  9996
2 55175  87.8838  44.3266 0002086  77.3490 282.7871 13.11414959150490
ONEWEB-0715             
1 55176U 23004AN  26050.99723851 -.00000421  00000+0 -12234-2 0  9992
2 55176  87.8836  44.3733 0002545  96.2105 263.9313 13.11416226150504
ONEWEB-0716             
1 55177U 23004AP  26050.87565102  .00000045  00000+0  82208-4 0  9993
2 55177  87.9117  29.1678 0001678  87.0237 273.1086 13.17648260152139
ONEWEB-0717             
1 55178U 23004AQ  26050.85877225  .00000018  00000+0  14012-4 0  9992
2 55178  87.9131  29.1486 0002432  70.6511 289.4883 13.17648039152189
ONEWEB-0719             
1 55179U 23004AR  26050.86890909  .00000054  00000+0  10657-3 0  9998
2 55179  87.9129  29.1283 0001710  79.8166 280.3158 13.17650655152134
ONEWEB-0530             
1 55796U 23029A   26051.19771919  .00000009  00000+0 -10630-4 0  9999
2 55796  87.9191 297.8341 0001800  64.1002 296.0317 13.20771107145709
ONEWEB-0534             
1 55797U 23029B   26051.18509437  .00000146  00000+0  32743-3 0  9992
2 55797  87.9192 297.8355 0001478  83.1118 277.0183 13.20771114145704
ONEWEB-0556             
1 55798U 23029C   26051.19140426  .00000016  00000+0  63895-5 0  9993
2 55798  87.9191 297.8367 0000846  54.7647 305.3565 13.20770403145705
ONEWEB-0562             
1 55799U 23029D   26051.17878215  .00000131  00000+0  29105-3 0  9998
2 55799  87.9192 297.8191 0001690  49.3037 310.8243 13.20771269145708
ONEWEB-0563             
1 55800U 23029E   26051.17246770  .00000106  00000+0  22890-3 0  9992
2 55800  87.9193 297.8510 0001384  85.8333 274.2959 13.20771306145698
ONEWEB-0564             
1 55801U 23029F   26051.16615768  .00000049  00000+0  88559-4 0  9990
2 55801  87.9194 297.8241 0001705  66.0698 294.0614 13.20771304145701
ONEWEB-0638             
1 55802U 23029G   26051.17169197  .00000717  00000+0  19000-2 0  9997
2 55802  87.9004 313.1015 0001331  57.7855 302.3403 13.14502245144022
ONEWEB-0639             
1 55803U 23029H   26051.19823250  .00000140  00000+0  31734-3 0  9996
2 55803  87.9246 328.2752 0001566 116.2980 243.8313 13.19725626143478
ONEWEB-0640             
1 55804U 23029J   26051.18118220  .00000285  00000+0  73410-3 0  9997
2 55804  87.9010 313.0893 0000879  73.0314 287.0912 13.14505102144042
ONEWEB-0641             
1 55805U 23029K   26051.19348947  .00000140  00000+0  31753-3 0  9994
2 55805  87.9253 328.2616 0001712  83.6071 276.5257 13.19724790143480
ONEWEB-0642             
1 55806U 23029L   26051.18875515  .00000119  00000+0  26413-3 0  9993
2 55806  87.9245 328.2786 0001796 106.3763 253.7568 13.19724772143474
